start=new Date('2021-12-24T00:00:00.000Z').valueOf();
sats=[{"EPHEMERIS_TYPE":"0","PERIOD":"95.593","REV_AT_EPOCH":"8511","TIME_SYSTEM":"UTC","ELEMENT_SET_NO":"999","PERIAPSIS":"545.793","INCLINATION":"53.0550","MEAN_ELEMENT_THEORY":"SGP4","LAUNCH_DATE":"2020-06-13","OBJECT_ID":"2020-038BC","OBJECT_TYPE":"PAYLOAD","GP_ID":"192322910","OBJECT_NAME":"STARLINK-1496","BSTAR":"0.00014565000000","RCS_SIZE":"LARGE","APOAPSIS":"548.687","TLE_LINE1":"1 45780U 20038BC  21357.89217742  .00001888  00000-0  14565-3 0  9994","CENTER_NAME":"EARTH","NORAD_CAT_ID":"45780","MEAN_MOTION_DDOT":"0.0000000000000","CLASSIFICATION_TYPE":"U","DECAY_DATE":null,"MEAN_MOTION_DOT":"0.00001888","ECCENTRICITY":"0.00020890","TLE_LINE2":"2 45780  53.0550 255.5821 0002089  75.8491 284.2730 15.06391389 85111","SITE":"AFETR","REF_FRAME":"TEME","RA_OF_ASC_NODE":"255.5821","MEAN_ANOMALY":"284.2730","SEMIMAJOR_AXIS":"6925.375","FILE":"3249421","MEAN_MOTION":"15.06391389","ARG_OF_PERICENTER":"75.8491","EPOCH":"2021-12-23T21:24:44.129088","COUNTRY_CODE":"US"},{"ARG_OF_PERICENTER":"62.2850","MEAN_MOTION":"15.06386786","FILE":"3249421","SEMIMAJOR_AXIS":"6925.389","MEAN_ANOMALY":"297.8324","REF_FRAME":"TEME","RA_OF_ASC_NODE":"255.4643","COUNTRY_CODE":"US","EPOCH":"2021-12-23T22:01:54.168384","TLE_LINE2":"2 45781  53.0543 255.4643 0001829  62.2850 297.8324 15.06386786 85120","ECCENTRICITY":"0.00018290","MEAN_MOTION_DOT":"0.00001567","DECAY_DATE":null,"CLASSIFICATION_TYPE":"U","SITE":"AFETR","BSTAR":"0.00012414000000","OBJECT_NAME":"STARLINK-1497","MEAN_MOTION_DDOT":"0.0000000000000","NORAD_CAT_ID":"45781","CENTER_NAME":"EARTH","TLE_LINE1":"1 45781U 20038BD  21357.91798806  .00001567  00000-0  12414-3 0  9998","RCS_SIZE":"LARGE","APOAPSIS":"548.521","ELEMENT_SET_NO":"999","TIME_SYSTEM":"UTC","REV_AT_EPOCH":"8512","PERIOD":"95.593","EPHEMERIS_TYPE":"0","GP_ID":"192322161","OBJECT_ID":"2020-038BD","OBJECT_TYPE":"PAYLOAD","LAUNCH_DATE":"2020-06-13","MEAN_ELEMENT_THEORY":"SGP4","INCLINATION":"53.0543","PERIAPSIS":"545.987"},{"OBJECT_TYPE":"PAYLOAD","OBJECT_ID":"2020-038BE","GP_ID":"192322412","LAUNCH_DATE":"2020-06-13","MEAN_ELEMENT_THEORY":"SGP4","INCLINATION":"53.0548","PERIAPSIS":"545.731","ELEMENT_SET_NO":"999","REV_AT_EPOCH":"8513","TIME_SYSTEM":"UTC","EPHEMERIS_TYPE":"0","PERIOD":"95.593","NORAD_CAT_ID":"45782","MEAN_MOTION_DDOT":"0.0000000000000","CENTER_NAME":"EARTH","TLE_LINE1":"1 45782U 20038BE  21357.91060911  .00001062  00000-0  90201-4 0  9999","APOAPSIS":"548.738","RCS_SIZE":"LARGE","BSTAR":"0.00009020100000","OBJECT_NAME":"STARLINK-1498","SITE":"AFETR","TLE_LINE2":"2 45782  53.0548 255.4941 0002171  65.6929 294.4286 15.06393147 85132","MEAN_MOTION_DOT":"0.00001062","ECCENTRICITY":"0.00021710","CLASSIFICATION_TYPE":"U","DECAY_DATE":null,"COUNTRY_CODE":"US","EPOCH":"2021-12-23T21:51:16.627104","ARG_OF_PERICENTER":"65.6929","FILE":"3249421","MEAN_MOTION":"15.06393147","MEAN_ANOMALY":"294.4286","SEMIMAJOR_AXIS":"6925.370","RA_OF_ASC_NODE":"255.4941","REF_FRAME":"TEME"},{"FILE":"3249421","MEAN_MOTION":"15.06400414","ARG_OF_PERICENTER":"67.5845","RA_OF_ASC_NODE":"255.4600","REF_FRAME":"TEME","MEAN_ANOMALY":"292.5353","SEMIMAJOR_AXIS":"6925.347","COUNTRY_CODE":"US","EPOCH":"2021-12-23T21:56:34.420992","TLE_LINE2":"2 45783  53.0538 255.4600 0001974  67.5845 292.5353 15.06400414 85132","CLASSIFICATION_TYPE":"U","DECAY_DATE":null,"MEAN_MOTION_DOT":"0.00001785","ECCENTRICITY":"0.00019740","SITE":"AFETR","OBJECT_NAME":"STARLINK-1505","BSTAR":"0.00013870000000","CENTER_NAME":"EARTH","NORAD_CAT_ID":"45783","MEAN_MOTION_DDOT":"0.0000000000000","RCS_SIZE":"LARGE","APOAPSIS":"548.579","TLE_LINE1":"1 45783U 20038BF  21357.91428728  .00001785  00000-0  13870-3 0  9992","ELEMENT_SET_NO":"999","EPHEMERIS_TYPE":"0","PERIOD":"95.592","REV_AT_EPOCH":"8513","TIME_SYSTEM":"UTC","LAUNCH_DATE":"2020-06-13","OBJECT_TYPE":"PAYLOAD","OBJECT_ID":"2020-038BF","GP_ID":"192322657","PERIAPSIS":"545.845","INCLINATION":"53.0538","MEAN_ELEMENT_THEORY":"SGP4"},{"SITE":"AFETR","TLE_LINE2":"2 45784  53.0550 255.5985 0002082  67.3971 292.7238 15.06388165 85124","ECCENTRICITY":"0.00020820","MEAN_MOTION_DOT":"0.00002402","DECAY_DATE":null,"CLASSIFICATION_TYPE":"U","COUNTRY_CODE":"US","EPOCH":"2021-12-23T21:19:26.128704","ARG_OF_PERICENTER":"67.3971","MEAN_MOTION":"15.06388165","FILE":"3249421","SEMIMAJOR_AXIS":"6925.385","MEAN_ANOMALY":"292.7238","RA_OF_ASC_NODE":"255.5985","REF_FRAME":"TEME","GP_ID":"192323411","OBJECT_TYPE":"PAYLOAD","OBJECT_ID":"2020-038BG","LAUNCH_DATE":"2020-06-13","INCLINATION":"53.0550","MEAN_ELEMENT_THEORY":"SGP4","PERIAPSIS":"545.808","ELEMENT_SET_NO":"999","TIME_SYSTEM":"UTC","REV_AT_EPOCH":"8512","PERIOD":"95.593","EPHEMERIS_TYPE":"0","MEAN_MOTION_DDOT":"0.0000000000000","NORAD_CAT_ID":"45784","CENTER_NAME":"EARTH","TLE_LINE1":"1 45784U 20038BG  21357.88849686  .00002402  00000-0  18014-3 0  9991","APOAPSIS":"548.692","RCS_SIZE":"LARGE","BSTAR":"0.00018014000000","OBJECT_NAME":"STARLINK-1510"},{"SITE":"AFETR","DECAY_DATE":null,"CLASSIFICATION_TYPE":"U","ECCENTRICITY":"0.00021500","MEAN_MOTION_DOT":"0.00002675","TLE_LINE2":"2 45785  53.0533 255.6715 0002150  67.4132 292.7085 15.06407404 85122","EPOCH":"2021-12-23T20:52:52.547232","COUNTRY_CODE":"US","REF_FRAME":"TEME","RA_OF_ASC_NODE":"255.6715","MEAN_ANOMALY":"292.7085","SEMIMAJOR_AXIS":"6925.326","MEAN_MOTION":"15.06407404","FILE":"3249421","ARG_OF_PERICENTER":"67.4132","PERIAPSIS":"545.702","MEAN_ELEMENT_THEORY":"SGP4","INCLINATION":"53.0533","LAUNCH_DATE":"2020-06-13","GP_ID":"192321661","OBJECT_TYPE":"PAYLOAD","OBJECT_ID":"2020-038BH","PERIOD":"95.592","EPHEMERIS_TYPE":"0","TIME_SYSTEM":"UTC","REV_AT_EPOCH":"8512","ELEMENT_SET_NO":"999","RCS_SIZE":"LARGE","APOAPSIS":"548.680","TLE_LINE1":"1 45785U 20038BH  21357.87005263  .00002675  00000-0  19838-3 0  9993","CENTER_NAME":"EARTH","MEAN_MOTION_DDOT":"0.0000000000000","NORAD_CAT_ID":"45785","OBJECT_NAME":"STARLINK-1512","BSTAR":"0.00019838000000"},{"SITE":"AFETR","TLE_LINE2":"2 45786  53.0524 255.4336 0001978  70.0252 290.0950 15.06411796 85132","CLASSIFICATION_TYPE":"U","DECAY_DATE":null,"MEAN_MOTION_DOT":"0.00004018","ECCENTRICITY":"0.00019780","COUNTRY_CODE":"US","EPOCH":"2021-12-23T22:07:10.379424","FILE":"3249421","MEAN_MOTION":"15.06411796","ARG_OF_PERICENTER":"70.0252","RA_OF_ASC_NODE":"255.4336","REF_FRAME":"TEME","SEMIMAJOR_AXIS":"6925.312","MEAN_ANOMALY":"290.0950","LAUNCH_DATE":"2020-06-13","OBJECT_TYPE":"PAYLOAD","OBJECT_ID":"2020-038BJ","GP_ID":"192321912","PERIAPSIS":"545.808","INCLINATION":"53.0524","MEAN_ELEMENT_THEORY":"SGP4","ELEMENT_SET_NO":"999","EPHEMERIS_TYPE":"0","PERIOD":"95.591","REV_AT_EPOCH":"8513","TIME_SYSTEM":"UTC","CENTER_NAME":"EARTH","NORAD_CAT_ID":"45786","MEAN_MOTION_DDOT":"0.0000000000000","APOAPSIS":"548.547","RCS_SIZE":"LARGE","TLE_LINE1":"1 45786U 20038BJ  21357.92164791  .00004018  00000-0  28841-3 0  9999","OBJECT_NAME":"STARLINK-1513","BSTAR":"0.00028841000000"},{"CENTER_NAME":"EARTH","NORAD_CAT_ID":"45787","MEAN_MOTION_DDOT":"0.0000000000000","RCS_SIZE":"LARGE","APOAPSIS":"548.689","TLE_LINE1":"1 45787U 20038BK  21357.92902899  .00003321  00000-0  24172-3 0  9998","OBJECT_NAME":"STARLINK-1517","BSTAR":"0.00024172000000","LAUNCH_DATE":"2020-06-13","OBJECT_ID":"2020-038BK","OBJECT_TYPE":"PAYLOAD","GP_ID":"192323158","PERIAPSIS":"545.697","INCLINATION":"53.0538","MEAN_ELEMENT_THEORY":"SGP4","ELEMENT_SET_NO":"999","EPHEMERIS_TYPE":"0","PERIOD":"95.592","REV_AT_EPOCH":"8513","TIME_SYSTEM":"UTC","COUNTRY_CODE":"US","EPOCH":"2021-12-23T22:17:48.104736","FILE":"3249421","MEAN_MOTION":"15.06406694","ARG_OF_PERICENTER":"66.0862","RA_OF_ASC_NODE":"255.4104","REF_FRAME":"TEME","SEMIMAJOR_AXIS":"6925.328","MEAN_ANOMALY":"294.0353","SITE":"AFETR","TLE_LINE2":"2 45787  53.0538 255.4104 0002160  66.0862 294.0353 15.06406694 85139","CLASSIFICATION_TYPE":"U","DECAY_DATE":null,"MEAN_MOTION_DOT":"0.00003321","ECCENTRICITY":"0.00021600"},{"CLASSIFICATION_TYPE":"U","DECAY_DATE":null,"MEAN_MOTION_DOT":"-0.00000772","ECCENTRICITY":"0.00024230","TLE_LINE2":"2 46027  53.0513 185.5304 0002423  82.9025 277.2240 15.06384053 77251","SITE":"AFETR","RA_OF_ASC_NODE":"185.5304","REF_FRAME":"TEME","MEAN_ANOMALY":"277.2240","SEMIMAJOR_AXIS":"6925.397","FILE":"3249421","MEAN_MOTION":"15.06384053","ARG_OF_PERICENTER":"82.9025","EPOCH":"2021-12-23T21:39:21.254112","COUNTRY_CODE":"US","EPHEMERIS_TYPE":"0","PERIOD":"95.593","REV_AT_EPOCH":"7725","TIME_SYSTEM":"UTC","ELEMENT_SET_NO":"999","PERIAPSIS":"545.584","INCLINATION":"53.0513","MEAN_ELEMENT_THEORY":"SGP4","LAUNCH_DATE":"2020-08-07","OBJECT_TYPE":"PAYLOAD","OBJECT_ID":"2020-055A","GP_ID":"192321937","OBJECT_NAME":"STARLINK-1522","BSTAR":"-0.00003292800000","RCS_SIZE":"LARGE","APOAPSIS":"548.940","TLE_LINE1":"1 46027U 20055A   21357.90232933 -.00000772  00000-0 -32928-4 0  9996","CENTER_NAME":"EARTH","NORAD_CAT_ID":"46027","MEAN_MOTION_DDOT":"0.0000000000000"},{"TLE_LINE2":"2 46028  53.0525 185.4572 0002545  88.2511 271.8769 15.06397965 77279","ECCENTRICITY":"0.00025450","MEAN_MOTION_DOT":"-0.00000260","DECAY_DATE":null,"CLASSIFICATION_TYPE":"U","SITE":"AFETR","ARG_OF_PERICENTER":"88.2511","MEAN_MOTION":"15.06397965","FILE":"3249421","MEAN_ANOMALY":"271.8769","SEMIMAJOR_AXIS":"6925.355","REF_FRAME":"TEME","RA_OF_ASC_NODE":"185.4572","COUNTRY_CODE":"US","EPOCH":"2021-12-23T22:00:34.735680","ELEMENT_SET_NO":"999","TIME_SYSTEM":"UTC","REV_AT_EPOCH":"7727","PERIOD":"95.592","EPHEMERIS_TYPE":"0","GP_ID":"192323183","OBJECT_ID":"2020-055B","OBJECT_TYPE":"PAYLOAD","LAUNCH_DATE":"2020-08-07","MEAN_ELEMENT_THEORY":"SGP4","INCLINATION":"53.0525","PERIAPSIS":"545.457","BSTAR":"0.00000145150000","OBJECT_NAME":"STARLINK-1523","MEAN_MOTION_DDOT":"0.0000000000000","NORAD_CAT_ID":"46028","CENTER_NAME":"EARTH","TLE_LINE1":"1 46028U 20055B   21357.91706870 -.00000260  00000-0  14515-5 0  9998","RCS_SIZE":"LARGE","APOAPSIS":"548.982"}];
